{
  "type": "FeatureCollection",
  "features": [
    {
      "type": "Feature",
      "properties": {
        "norad_id": 40115,
        "name": "WORLDVIEW-3 (WV-3)",
        "group": "resource",
        "lat": 13.296979945422532,
        "lon": 50.201748532044746,
        "alt_km": 616.0522060531657,
        "timestamp": "2025-12-05T16:54:14.326917+00:00",
        "meta_object_name": "WORLDVIEW-3 (WV-3)",
        "meta_object_id": "2014-048A",
        "meta_epoch": "2025-12-05T05:31:38.222400",
        "meta_mean_motion": 14.85482171,
        "meta_eccentricity": 0.00042343,
        "meta_inclination": 97.8625,
        "meta_ra_of_asc_node": 51.6052,
        "meta_arg_of_pericenter": 211.1891,
        "meta_mean_anomaly": 148.9073,
        "meta_ephemeris_type": 0,
        "meta_classification_type": "U",
        "meta_norad_cat_id": 40115,
        "meta_element_set_no": 999,
        "meta_rev_at_epoch": 61312,
        "meta_bstar": 0.00031049206,
        "meta_mean_motion_dot": 2.626e-05,
        "meta_mean_motion_ddot": 0,
        "tle_line1": "1 40115U 14048A   25339.23030350  .00002626  00000+0  31049-3 0  9991",
        "tle_line2": "2 40115  97.8625  51.6052 0004234 211.1891 148.9073 14.85482171613121"
      },
      "geometry": {
        "type": "Point",
        "coordinates": [
          50.201748532044746,
          13.296979945422532
        ]
      }
    },
    {
      "type": "Feature",
      "properties": {
        "norad_id": 40118,
        "name": "GAOFEN-2",
        "group": "resource",
        "lat": -44.79664413032611,
        "lon": 46.92785728114046,
        "alt_km": 640.0223480478953,
        "timestamp": "2025-12-05T16:54:14.326927+00:00",
        "meta_object_name": "GAOFEN-2",
        "meta_object_id": "2014-049A",
        "meta_epoch": "2025-12-05T07:22:37.297632",
        "meta_mean_motion": 14.80587773,
        "meta_eccentricity": 0.0008314,
        "meta_inclination": 98.0396,
        "meta_ra_of_asc_node": 38.4626,
        "meta_arg_of_pericenter": 134.3765,
        "meta_mean_anomaly": 225.8129,
        "meta_ephemeris_type": 0,
        "meta_classification_type": "U",
        "meta_norad_cat_id": 40118,
        "meta_element_set_no": 999,
        "meta_rev_at_epoch": 61054,
        "meta_bstar": 0.00019621205,
        "meta_mean_motion_dot": 1.452e-05,
        "meta_mean_motion_ddot": 0,
        "tle_line1": "1 40118U 14049A   25339.30737613  .00001452  00000+0  19621-3 0  9997",
        "tle_line2": "2 40118  98.0396  38.4626 0008314 134.3765 225.8129 14.80587773610540"
      },
      "geometry": {
        "type": "Point",
        "coordinates": [
          46.92785728114046,
          -44.79664413032611
        ]
      }
    },
    {
      "type": "Feature",
      "properties": {
        "norad_id": 40143,
        "name": "YAOGAN-21",
        "group": "resource",
        "lat": -82.7767000388026,
        "lon": 107.13680042477606,
        "alt_km": 508.7308166407656,
        "timestamp": "2025-12-05T16:54:14.326937+00:00",
        "meta_object_name": "YAOGAN-21",
        "meta_object_id": "2014-053A",
        "meta_epoch": "2025-12-05T07:50:15.586656",
        "meta_mean_motion": 15.2353899,
        "meta_eccentricity": 0.00101955,
        "meta_inclination": 97.1767,
        "meta_ra_of_asc_node": 22.9623,
        "meta_arg_of_pericenter": 64.3729,
        "meta_mean_anomaly": 295.8561,
        "meta_ephemeris_type": 0,
        "meta_classification_type": "U",
        "meta_norad_cat_id": 40143,
        "meta_element_set_no": 999,
        "meta_rev_at_epoch": 62541,
        "meta_bstar": 0.00047369589,
        "meta_mean_motion_dot": 0.00011273,
        "meta_mean_motion_ddot": 0,
        "tle_line1": "1 40143U 14053A   25339.32656929  .00011273  00000+0  47370-3 0  9996",
        "tle_line2": "2 40143  97.1767  22.9623 0010195  64.3729 295.8561 15.23538990625411"
      },
      "geometry": {
        "type": "Point",
        "coordinates": [
          107.13680042477606,
          -82.7767000388026
        ]
      }
    },
    {
      "type": "Feature",
      "properties": {
        "norad_id": 40275,
        "name": "YAOGAN-22",
        "group": "resource",
        "lat": -32.17197323921532,
        "lon": 129.8821176155556,
        "alt_km": 1205.6351234679105,
        "timestamp": "2025-12-05T16:54:14.326946+00:00",
        "meta_object_name": "YAOGAN-22",
        "meta_object_id": "2014-063A",
        "meta_epoch": "2025-12-05T07:56:39.155136",
        "meta_mean_motion": 13.15522529,
        "meta_eccentricity": 0.00058933,
        "meta_inclination": 100.7418,
        "meta_ra_of_asc_node": 122.646,
        "meta_arg_of_pericenter": 266.1044,
        "meta_mean_anomaly": 93.9394,
        "meta_ephemeris_type": 0,
        "meta_classification_type": "U",
        "meta_norad_cat_id": 40275,
        "meta_element_set_no": 999,
        "meta_rev_at_epoch": 53432,
        "meta_bstar": 8.1537493e-05,
        "meta_mean_motion_dot": -1.6e-07,
        "meta_mean_motion_ddot": 0,
        "tle_line1": "1 40275U 14063A   25339.33100874 -.00000016  00000+0  81537-4 0  9995",
        "tle_line2": "2 40275 100.7418 122.6460 0005893 266.1044  93.9394 13.15522529534329"
      },
      "geometry": {
        "type": "Point",
        "coordinates": [
          129.8821176155556,
          -32.17197323921532
        ]
      }
    },
    {
      "type": "Feature",
      "properties": {
        "norad_id": 40298,
        "name": "ASNARO",
        "group": "resource",
        "lat": 64.45194567833214,
        "lon": 40.1213313862715,
        "alt_km": 500.95841319321426,
        "timestamp": "2025-12-05T16:54:14.326956+00:00",
        "meta_object_name": "ASNARO",
        "meta_object_id": "2014-070A",
        "meta_epoch": "2025-12-05T07:07:56.663040",
        "meta_mean_motion": 15.19256443,
        "meta_eccentricity": 0.00052351,
        "meta_inclination": 97.3666,
        "meta_ra_of_asc_node": 55.4275,
        "meta_arg_of_pericenter": 143.6439,
        "meta_mean_anomaly": 216.5152,
        "meta_ephemeris_type": 0,
        "meta_classification_type": "U",
        "meta_norad_cat_id": 40298,
        "meta_element_set_no": 999,
        "meta_rev_at_epoch": 61456,
        "meta_bstar": 0.00077860265,
        "meta_mean_motion_dot": 0.00016375,
        "meta_mean_motion_ddot": 0,
        "tle_line1": "1 40298U 14070A   25339.29718360  .00016375  00000+0  77860-3 0  9995",
        "tle_line2": "2 40298  97.3666  55.4275 0005235 143.6439 216.5152 15.19256443614569"
      },
      "geometry": {
        "type": "Point",
        "coordinates": [
          40.1213313862715,
          64.45194567833214
        ]
      }
    },
    {
      "type": "Feature",
      "properties": {
        "norad_id": 40310,
        "name": "YAOGAN-24",
        "group": "resource",
        "lat": 49.60339109889385,
        "lon": 101.09935759494505,
        "alt_km": 640.3257131439686,
        "timestamp": "2025-12-05T16:54:14.326965+00:00",
        "meta_object_name": "YAOGAN-24",
        "meta_object_id": "2014-072A",
        "meta_epoch": "2025-12-05T08:32:32.420256",
        "meta_mean_motion": 14.76152659,
        "meta_eccentricity": 0.00143957,
        "meta_inclination": 98.122,
        "meta_ra_of_asc_node": 110.4103,
        "meta_arg_of_pericenter": 160.8549,
        "meta_mean_anomaly": 199.3204,
        "meta_ephemeris_type": 0,
        "meta_classification_type": "U",
        "meta_norad_cat_id": 40310,
        "meta_element_set_no": 999,
        "meta_rev_at_epoch": 59512,
        "meta_bstar": 0.00032236709,
        "meta_mean_motion_dot": 2.178e-05,
        "meta_mean_motion_ddot": 0,
        "tle_line1": "1 40310U 14072A   25339.35593079  .00002178  00000+0  32237-3 0  9992",
        "tle_line2": "2 40310  98.1220 110.4103 0014395 160.8549 199.3204 14.76152659595123"
      },
      "geometry": {
        "type": "Point",
        "coordinates": [
          101.09935759494505,
          49.60339109889385
        ]
      }
    },
    {
      "type": "Feature",
      "properties": {
        "norad_id": 40336,
        "name": "CBERS 4",
        "group": "resource",
        "lat": 77.70797318892694,
        "lon": -99.77147154224379,
        "alt_km": 765.0866862065559,
        "timestamp": "2025-12-05T16:54:14.326974+00:00",
        "meta_object_name": "CBERS 4",
        "meta_object_id": "2014-079A",
        "meta_epoch": "2025-12-05T08:04:48.372672",
        "meta_mean_motion": 14.35513478,
        "meta_eccentricity": 0.00014724,
        "meta_inclination": 98.332,
        "meta_ra_of_asc_node": 37.6065,
        "meta_arg_of_pericenter": 122.2643,
        "meta_mean_anomaly": 237.8686,
        "meta_ephemeris_type": 0,
        "meta_classification_type": "U",
        "meta_norad_cat_id": 40336,
        "meta_element_set_no": 999,
        "meta_rev_at_epoch": 57614,
        "meta_bstar": 0.00013634428,
        "meta_mean_motion_dot": 3.5e-06,
        "meta_mean_motion_ddot": 0,
        "tle_line1": "1 40336U 14079A   25339.33667098  .00000350  00000+0  13634-3 0  9998",
        "tle_line2": "2 40336  98.3320  37.6065 0001472 122.2643 237.8686 14.35513478576148"
      },
      "geometry": {
        "type": "Point",
        "coordinates": [
          -99.77147154224379,
          77.70797318892694
        ]
      }
    }
  ]
}